{"type": "FeatureCollection", "features": [ {"type": "Feature", "properties": {"norad_id": 36048, "name": "COSMOS 2251 DEB", "group": "cosmos-2251-debris", "lat": 73.40373572442036, "lon": 24.726825436488657, "alt_km": 770.1566673160387, "timestamp": "2025-12-24T03:53:30.044315+00:00", "meta": {"OBJECT_NAME": "COSMOS 2251 DEB", "OBJECT_ID": "1993-036AXK", "EPOCH": "2025-12-21T06:01:50.414016", "MEAN_MOTION": 14.37865645, "ECCENTRICITY": 0.0026967, "INCLINATION": 74.0573, "RA_OF_ASC_NODE": 283.6319, "ARG_OF_PERICENTER": 332.094, "MEAN_ANOMALY": 180.7418, "EPHEMERIS_TYPE": 0, "CLASSIFICATION_TYPE": "U", "NORAD_CAT_ID": 36048, "ELEMENT_SET_NO": 999, "REV_AT_EPOCH": 85624, "BSTAR": 0.00021907, "MEAN_MOTION_DOT": 6.37e-06, "MEAN_MOTION_DDOT": 0}, "tle": {"line1": "1 36048U 93036AXK 25355.25127794  .00000637  00000+0  21907-3 0  9996", "line2": "2 36048  74.0573 283.6319 0026967 332.0940 180.7418 14.37865645856245"}}, "geometry": {"type": "Point", "coordinates": [24.726825436488657, 73.40373572442036]}}, {"type": "Feature", "properties": {"norad_id": 36049, "name": "COSMOS 2251 DEB", "group": "cosmos-2251-debris", "lat": 55.587013815845374, "lon": -107.40194385507925, "alt_km": 676.8746698319119, "timestamp": "2025-12-24T03:53:30.044326+00:00", "meta": {"OBJECT_NAME": "COSMOS 2251 DEB", "OBJECT_ID": "1993-036AXL", "EPOCH": "2025-12-19T00:11:29.887584", "MEAN_MOTION": 14.62222603, "ECCENTRICITY": 0.00103942, "INCLINATION": 74.0312, "RA_OF_ASC_NODE": 107.1751, "ARG_OF_PERICENTER": 195.1693, "MEAN_ANOMALY": 164.9164, "EPHEMERIS_TYPE": 0, "CLASSIFICATION_TYPE": "U", "NORAD_CAT_ID": 36049, "ELEMENT_SET_NO": 999, "REV_AT_EPOCH": 85456, "BSTAR": 0.00099664593, "MEAN_MOTION_DOT": 4.999e-05, "MEAN_MOTION_DDOT": 0}, "tle": {"line1": "1 36049U 93036AXL 25353.00798481  .00004999  00000+0  99665-3 0  9996", "line2": "2 36049  74.0312 107.1751 0010394 195.1693 164.9164 14.62222603854561"}}, "geometry": {"type": "Point", "coordinates": [-107.40194385507925, 55.587013815845374]}}, {"type": "Feature", "properties": {"norad_id": 36050, "name": "COSMOS 2251 DEB", "group": "cosmos-2251-debris", "lat": -8.585920786895047, "lon": 168.28108735339876, "alt_km": 580.6344002925198, "timestamp": "2025-12-24T03:53:30.044347+00:00", "meta": {"OBJECT_NAME": "COSMOS 2251 DEB", "OBJECT_ID": "1993-036AXM", "EPOCH": "2025-12-23T18:20:06.374688", "MEAN_MOTION": 15.01191833, "ECCENTRICITY": 0.0088383, "INCLINATION": 74.0302, "RA_OF_ASC_NODE": 171.57, "ARG_OF_PERICENTER": 248.7055, "MEAN_ANOMALY": 110.468, "EPHEMERIS_TYPE": 0, "CLASSIFICATION_TYPE": "U", "NORAD_CAT_ID": 36050, "ELEMENT_SET_NO": 999, "REV_AT_EPOCH": 67200, "BSTAR": 0.00066513, "MEAN_MOTION_DOT": 9.246e-05, "MEAN_MOTION_DDOT": 0}, "tle": {"line1": "1 36050U 93036AXM 25357.76396267  .00009246  00000+0  66513-3 0  9997", "line2": "2 36050  74.0302 171.5700 0088383 248.7055 110.4680 15.01191833672001"}}, "geometry": {"type": "Point", "coordinates": [168.28108735339876, -8.585920786895047]}}, {"type": "Feature", "properties": {"norad_id": 36053, "name": "COSMOS 2251 DEB", "group": "cosmos-2251-debris", "lat": -68.23680338044156, "lon": -2.7704413862805226, "alt_km": 731.8268139077754, "timestamp": "2025-12-24T03:53:30.044358+00:00", "meta": {"OBJECT_NAME": "COSMOS 2251 DEB", "OBJECT_ID": "1993-036AXQ", "EPOCH": "2025-12-19T02:27:11.674944", "MEAN_MOTION": 14.57252603, "ECCENTRICITY": 0.00325446, "INCLINATION": 73.8697, "RA_OF_ASC_NODE": 140.476, "ARG_OF_PERICENTER": 87.3695, "MEAN_ANOMALY": 273.1193, "EPHEMERIS_TYPE": 0, "CLASSIFICATION_TYPE": "U", "NORAD_CAT_ID": 36053, "ELEMENT_SET_NO": 999, "REV_AT_EPOCH": 87537, "BSTAR": 0.0010759038, "MEAN_MOTION_DOT": 4.872e-05, "MEAN_MOTION_DDOT": 0}, "tle": {"line1": "1 36053U 93036AXQ 25353.10221846  .00004872  00000+0  10759-2 0  9994", "line2": "2 36053  73.8697 140.4760 0032544  87.3695 273.1193 14.57252603875378"}}, "geometry": {"type": "Point", "coordinates": [-2.7704413862805226, -68.23680338044156]}}, {"type": "Feature", "properties": {"norad_id": 36058, "name": "COSMOS 2251 DEB", "group": "cosmos-2251-debris", "lat": 71.89872272059922, "lon": 72.91260906858048, "alt_km": 675.0163793340416, "timestamp": "2025-12-24T03:53:30.044369+00:00", "meta": {"OBJECT_NAME": "COSMOS 2251 DEB", "OBJECT_ID": "1993-036AXV", "EPOCH": "2025-12-20T18:52:04.818432", "MEAN_MOTION": 14.58726339, "ECCENTRICITY": 0.00440828, "INCLINATION": 74.0229, "RA_OF_ASC_NODE": 18.1226, "ARG_OF_PERICENTER": 150.2394, "MEAN_ANOMALY": 210.1292, "EPHEMERIS_TYPE": 0, "CLASSIFICATION_TYPE": "U", "NORAD_CAT_ID": 36058, "ELEMENT_SET_NO": 999, "REV_AT_EPOCH": 66228, "BSTAR": 0.0002931852, "MEAN_MOTION_DOT": 1.357e-05, "MEAN_MOTION_DDOT": 0}, "tle": {"line1": "1 36058U 93036AXV 25354.78616688  .00001357  00000+0  29319-3 0  9994", "line2": "2 36058  74.0229  18.1226 0044082 150.2394 210.1292 14.58726339662289"}}, "geometry": {"type": "Point", "coordinates": [72.91260906858048, 71.89872272059922]}}, {"type": "Feature", "properties": {"norad_id": 36060, "name": "COSMOS 2251 DEB", "group": "cosmos-2251-debris", "lat": 17.568560761662027, "lon": -141.41267685652932, "alt_km": 747.9934040488288, "timestamp": "2025-12-24T03:53:30.044379+00:00", "meta": {"OBJECT_NAME": "COSMOS 2251 DEB", "OBJECT_ID": "1993-036AXX", "EPOCH": "2025-12-22T08:31:01.741728", "MEAN_MOTION": 14.42019225, "ECCENTRICITY": 0.00155648, "INCLINATION": 74.0279, "RA_OF_ASC_NODE": 216.7352, "ARG_OF_PERICENTER": 312.7382, "MEAN_ANOMALY": 47.2463, "EPHEMERIS_TYPE": 0, "CLASSIFICATION_TYPE": "U", "NORAD_CAT_ID": 36060, "ELEMENT_SET_NO": 999, "REV_AT_EPOCH": 85148, "BSTAR": 0.00027365576, "MEAN_MOTION_DOT": 8.73e-06, "MEAN_MOTION_DDOT": 0}, "tle": {"line1": "1 36060U 93036AXX 25356.35488127  .00000873  00000+0  27366-3 0  9999", "line2": "2 36060  74.0279 216.7352 0015564 312.7382  47.2463 14.42019225851481"}}, "geometry": {"type": "Point", "coordinates": [-141.41267685652932, 17.568560761662027]}}, {"type": "Feature", "properties": {"norad_id": 36061, "name": "COSMOS 2251 DEB", "group": "cosmos-2251-debris", "lat": -37.45162173435521, "lon": 171.52788197779856, "alt_km": 809.4346814612327, "timestamp": "2025-12-24T03:53:30.044414+00:00", "meta": {"OBJECT_NAME": "COSMOS 2251 DEB", "OBJECT_ID": "1993-036AXY", "EPOCH": "2025-12-23T15:09:10.672992", "MEAN_MOTION": 14.33725339, "ECCENTRICITY": 0.003692, "INCLINATION": 74.0242, "RA_OF_ASC_NODE": 339.8232, "ARG_OF_PERICENTER": 64.3412, "MEAN_ANOMALY": 296.1546, "EPHEMERIS_TYPE": 0, "CLASSIFICATION_TYPE": "U", "NORAD_CAT_ID": 36061, "ELEMENT_SET_NO": 999, "REV_AT_EPOCH": 65260, "BSTAR": 0.00028137, "MEAN_MOTION_DOT": 7.61e-06, "MEAN_MOTION_DDOT": 0}, "tle": {"line1": "1 36061U 93036AXY 25357.63137353  .00000761  00000+0  28137-3 0  9997", "line2": "2 36061  74.0242 339.8232 0036920  64.3412 296.1546 14.33725339652609"}}, "geometry": {"type": "Point", "coordinates": [171.52788197779856, -37.45162173435521]}}, {"type": "Feature", "properties": {"norad_id": 36073, "name": "COSMOS 2251 DEB", "group": "cosmos-2251-debris", "lat": 6.077850965664609, "lon": -56.628655247198644, "alt_km": 759.7274780013786, "timestamp": "2025-12-24T03:53:30.044426+00:00", "meta": {"OBJECT_NAME": "COSMOS 2251 DEB", "OBJECT_ID": "1993-036AYL", "EPOCH": "2025-12-18T03:58:06.481920", "MEAN_MOTION": 14.34959898, "ECCENTRICITY": 0.00240895, "INCLINATION": 74.0326, "RA_OF_ASC_NODE": 312.6126, "ARG_OF_PERICENTER": 19.0207, "MEAN_ANOMALY": 341.1839, "EPHEMERIS_TYPE": 0, "CLASSIFICATION_TYPE": "U", "NORAD_CAT_ID": 36073, "ELEMENT_SET_NO": 999, "REV_AT_EPOCH": 70285, "BSTAR": 0.0001893667, "MEAN_MOTION_DOT": 5.14e-06, "MEAN_MOTION_DDOT": 0}, "tle": {"line1": "1 36073U 93036AYL 25352.16535280  .00000514  00000+0  18937-3 0  9997", "line2": "2 36073  74.0326 312.6126 0024089  19.0207 341.1839 14.34959898702857"}}, "geometry": {"type": "Point", "coordinates": [-56.628655247198644, 6.077850965664609]}}, {"type": "Feature", "properties": {"norad_id": 36074, "name": "COSMOS 2251 DEB", "group": "cosmos-2251-debris", "lat": 32.76396437911186, "lon": 128.54665434988732, "alt_km": 747.5905609604597, "timestamp": "2025-12-24T03:53:30.044436+00:00", "meta": {"OBJECT_NAME": "COSMOS 2251 DEB", "OBJECT_ID": "1993-036AYM", "EPOCH": "2025-12-22T22:57:11.517120", "MEAN_MOTION": 14.43796912, "ECCENTRICITY": 0.0041956, "INCLINATION": 73.994, "RA_OF_ASC_NODE": 321.4388, "ARG_OF_PERICENTER": 50.2945, "MEAN_ANOMALY": 310.1898, "EPHEMERIS_TYPE": 0, "CLASSIFICATION_TYPE": "U", "NORAD_CAT_ID": 36074, "ELEMENT_SET_NO": 999, "REV_AT_EPOCH": 86057, "BSTAR": 0.001160749, "MEAN_MOTION_DOT": 3.969e-05, "MEAN_MOTION_DDOT": 0}, "tle": {"line1": "1 36074U 93036AYM 25356.95638330  .00003969  00000+0  11607-2 0  9992", "line2": "2 36074  73.9940 321.4388 0041956  50.2945 310.1898 14.43796912860575"}}, "geometry": {"type": "Point", "coordinates": [128.54665434988732, 32.76396437911186]}}, {"type": "Feature", "properties": {"norad_id": 36366, "name": "COSMOS 2251 DEB", "group": "cosmos-2251-debris", "lat": 15.822235841302806, "lon": -103.13629358413023, "alt_km": 789.4892608161663, "timestamp": "2025-12-24T03:53:30.044446+00:00", "meta": {"OBJECT_NAME": "COSMOS 2251 DEB", "OBJECT_ID": "1993-036AYT", "EPOCH": "2025-12-21T17:11:32.767008", "MEAN_MOTION": 14.33460542, "ECCENTRICITY": 0.00902396, "INCLINATION": 74.0657, "RA_OF_ASC_NODE": 256.6822, "ARG_OF_PERICENTER": 283.124, "MEAN_ANOMALY": 75.9853, "EPHEMERIS_TYPE": 0, "CLASSIFICATION_TYPE": "U", "NORAD_CAT_ID": 36366, "ELEMENT_SET_NO": 999, "REV_AT_EPOCH": 86417, "BSTAR": 0.0010533139, "MEAN_MOTION_DOT": 3.019e-05, "MEAN_MOTION_DDOT": 0}, "tle": {"line1": "1 36366U 93036AYT 25355.71635147  .00003019  00000+0  10533-2 0  9995", "line2": "2 36366  74.0657 256.6822 0090239 283.1240  75.9853 14.33460542864174"}}, "geometry": {"type": "Point", "coordinates": [-103.13629358413023, 15.822235841302806]}}]}